[{"OBJECT_NAME":"STARLINK-4527","OBJECT_ID":"2022-097BA","EPOCH":"2026-03-09T07:52:01.183008","MEAN_MOTION":15.08855683,"ECCENTRICITY":0.00015807,"INCLINATION":53.2155,"RA_OF_ASC_NODE":105.4282,"ARG_OF_PERICENTER":97.6291,"MEAN_ANOMALY":262.4881,"EPHEMERIS_TYPE":0,"CLASSIFICATION_TYPE":"U","NORAD_CAT_ID":53436,"ELEMENT_SET_NO":999,"REV_AT_EPOCH":19873,"BSTAR":0.00018855289,"MEAN_MOTION_DOT":2.715e-5,"MEAN_MOTION_DDOT":0},{"OBJECT_NAME":"TIUNGSAT-1 (MO-46)","OBJECT_ID":"2000-057D","EPOCH":"2026-03-09T15:36:52.176096","MEAN_MOTION":15.01128781,"ECCENTRICITY":0.003692,"INCLINATION":64.5465,"RA_OF_ASC_NODE":82.7132,"ARG_OF_PERICENTER":302.2682,"MEAN_ANOMALY":57.4857,"EPHEMERIS_TYPE":0,"CLASSIFICATION_TYPE":"U","NORAD_CAT_ID":26548,"ELEMENT_SET_NO":999,"REV_AT_EPOCH":38128,"BSTAR":0.00030184,"MEAN_MOTION_DOT":3.762e-5,"MEAN_MOTION_DDOT":0}]
